EUTELSAT 21B            
1 38992U 12062B   25263.90391873  .00000117  00000+0  00000+0 0  9997
2 38992   0.0754  18.5879 0002823 163.8127 164.6615  1.00270535 47126
EUTELSAT 70B            
1 39020U 12069A   25263.88725334 -.00000057  00000+0  00000+0 0  9991
2 39020   0.0651 355.4346 0004005 187.3549 207.1482  1.00271175 46800
EUTELSAT 117 WEST A     
1 39122U 13012A   25263.69992112  .00000000  00000+0  00000+0 0  9999
2 39122   0.0147 176.0130 0002869  11.1298 307.8536  1.00269520 45732
EUTELSAT 7B             
1 39163U 13022A   25263.90947641  .00000035  00000+0  00000+0 0  9994
2 39163   0.0699   2.5435 0000770 350.4878 341.4177  1.00273455 45256
EXPRESS-AT1             
1 39612U 14010A   25263.94825736  .00000000  00000+0  00000+0 0  9997
2 39612   0.0258 185.4971 0000456 270.6163 301.3337  1.00271708 42117
EXPRESS-AT2             
1 39613U 14010B   25263.89346815 -.00000294  00000+0  00000+0 0  9994
2 39613   0.0250 252.3654 0000292 231.2825 337.8741  1.00273344 41792
EUTELSAT 3B             
1 39773U 14030A   25263.90947641  .00000006  00000+0  00000+0 0  9999
2 39773   0.0642 354.6096 0004318 185.5905 150.3514  1.00270891 41366
EUTELSAT 115 WEST B     
1 40425U 15010B   25262.91824535 -.00000042  00000+0  00000+0 0  9991
2 40425   0.0383  20.5508 0000048 140.3236  53.8598  1.00271424 38686
